CCSDS_OMM_VERS = 2.0
CREATION_DATE  = 
ORIGINATOR     = 

OBJECT_NAME    = SL-16 R/B
OBJECT_ID      = 1998-043G
CENTER_NAME    = EARTH
REF_FRAME      = TEME
TIME_SYSTEM    = UTC
MEAN_ELEMENT_THEORY = SGP/SGP4

EPOCH          = 2026-01-25T10:34:29.694144
MEAN_MOTION    = 14.26038316
ECCENTRICITY   = .0010548
INCLINATION    = 98.8186
RA_OF_ASC_NODE = 338.5171
ARG_OF_PERICENTER = 135.2791
MEAN_ANOMALY   = 224.9241

EPHEMERIS_TYPE = 0
CLASSIFICATION_TYPE = U
NORAD_CAT_ID   = 25400
ELEMENT_SET_NO = 999
REV_AT_EPOCH   = 43282
BSTAR          = .88565E-4
MEAN_MOTION_DOT = .166E-5
MEAN_MOTION_DDOT = 0

CCSDS_OMM_VERS = 2.0
CREATION_DATE  = 
ORIGINATOR     = 

OBJECT_NAME    = SL-16 R/B
OBJECT_ID      = 1998-045B
CENTER_NAME    = EARTH
REF_FRAME      = TEME
TIME_SYSTEM    = UTC
MEAN_ELEMENT_THEORY = SGP/SGP4

EPOCH          = 2026-01-25T03:12:37.732320
MEAN_MOTION    = 14.16186592
ECCENTRICITY   = .00051236
INCLINATION    = 71.0108
RA_OF_ASC_NODE = 273.1720
ARG_OF_PERICENTER = 93.0192
MEAN_ANOMALY   = 267.1518

EPHEMERIS_TYPE = 0
CLASSIFICATION_TYPE = U
NORAD_CAT_ID   = 25407
ELEMENT_SET_NO = 999
REV_AT_EPOCH   = 42093
BSTAR          = .10576627E-3
MEAN_MOTION_DOT = .162E-5
MEAN_MOTION_DDOT = 0

CCSDS_OMM_VERS = 2.0
CREATION_DATE  = 
ORIGINATOR     = 

OBJECT_NAME    = ISS (ZARYA)
OBJECT_ID      = 1998-067A
CENTER_NAME    = EARTH
REF_FRAME      = TEME
TIME_SYSTEM    = UTC
MEAN_ELEMENT_THEORY = SGP/SGP4

EPOCH          = 2026-01-25T04:57:48.835008
MEAN_MOTION    = 15.48166742
ECCENTRICITY   = .0011053
INCLINATION    = 51.6318
RA_OF_ASC_NODE = 287.2985
ARG_OF_PERICENTER = 28.4406
MEAN_ANOMALY   = 331.7183

EPHEMERIS_TYPE = 0
CLASSIFICATION_TYPE = U
NORAD_CAT_ID   = 25544
ELEMENT_SET_NO = 999
REV_AT_EPOCH   = 54959
BSTAR          = .27414E-3
MEAN_MOTION_DOT = .14276E-3
MEAN_MOTION_DDOT = 0

CCSDS_OMM_VERS = 2.0
CREATION_DATE  = 
ORIGINATOR     = 

OBJECT_NAME    = CZ-4B R/B
OBJECT_ID      = 1999-025C
CENTER_NAME    = EARTH
REF_FRAME      = TEME
TIME_SYSTEM    = UTC
MEAN_ELEMENT_THEORY = SGP/SGP4

EPOCH          = 2026-01-25T03:18:49.815648
MEAN_MOTION    = 14.18255889
ECCENTRICITY   = .00381527
INCLINATION    = 98.6708
RA_OF_ASC_NODE = 70.4346
ARG_OF_PERICENTER = 109.7861
MEAN_ANOMALY   = 317.1534

EPHEMERIS_TYPE = 0
CLASSIFICATION_TYPE = U
NORAD_CAT_ID   = 25732
ELEMENT_SET_NO = 999
REV_AT_EPOCH   = 38199
BSTAR          = .80856155E-4
MEAN_MOTION_DOT = .125E-5
MEAN_MOTION_DDOT = 0

CCSDS_OMM_VERS = 2.0
CREATION_DATE  = 
ORIGINATOR     = 

OBJECT_NAME    = OKEAN-O
OBJECT_ID      = 1999-039A
CENTER_NAME    = EARTH
REF_FRAME      = TEME
TIME_SYSTEM    = UTC
MEAN_ELEMENT_THEORY = SGP/SGP4

EPOCH          = 2026-01-25T02:53:51.859968
MEAN_MOTION    = 14.80256341
ECCENTRICITY   = .00018778
INCLINATION    = 97.9534
RA_OF_ASC_NODE = 85.4346
ARG_OF_PERICENTER = 98.9251
MEAN_ANOMALY   = 261.2173

EPHEMERIS_TYPE = 0
CLASSIFICATION_TYPE = U
NORAD_CAT_ID   = 25860
ELEMENT_SET_NO = 999
REV_AT_EPOCH   = 42794
BSTAR          = .20108594E-3
MEAN_MOTION_DOT = .1478E-4
MEAN_MOTION_DDOT = 0

CCSDS_OMM_VERS = 2.0
CREATION_DATE  = 
ORIGINATOR     = 

OBJECT_NAME    = SL-16 R/B
OBJECT_ID      = 1999-039B
CENTER_NAME    = EARTH
REF_FRAME      = TEME
TIME_SYSTEM    = UTC
MEAN_ELEMENT_THEORY = SGP/SGP4

EPOCH          = 2026-01-25T03:24:16.558848
MEAN_MOTION    = 14.81663786
ECCENTRICITY   = .0015704
INCLINATION    = 98.0060
RA_OF_ASC_NODE = 84.2827
ARG_OF_PERICENTER = 42.8461
MEAN_ANOMALY   = 317.3972

EPHEMERIS_TYPE = 0
CLASSIFICATION_TYPE = U
NORAD_CAT_ID   = 25861
ELEMENT_SET_NO = 999
REV_AT_EPOCH   = 43041
BSTAR          = .15526614E-3
MEAN_MOTION_DOT = .117E-4
MEAN_MOTION_DDOT = 0

CCSDS_OMM_VERS = 2.0
CREATION_DATE  = 
ORIGINATOR     = 

OBJECT_NAME    = DELTA 2 R/B
OBJECT_ID      = 1999-041E
CENTER_NAME    = EARTH
REF_FRAME      = TEME
TIME_SYSTEM    = UTC
MEAN_ELEMENT_THEORY = SGP/SGP4

EPOCH          = 2026-01-25T09:34:35.099040
MEAN_MOTION    = 14.11629275
ECCENTRICITY   = .050291
INCLINATION    = 51.7625
RA_OF_ASC_NODE = 114.1464
ARG_OF_PERICENTER = 220.5150
MEAN_ANOMALY   = 135.7310

EPHEMERIS_TYPE = 0
CLASSIFICATION_TYPE = U
NORAD_CAT_ID   = 25876
ELEMENT_SET_NO = 999
REV_AT_EPOCH   = 35691
BSTAR          = .7067E-3
MEAN_MOTION_DOT = .4165E-4
MEAN_MOTION_DDOT = 0

CCSDS_OMM_VERS = 2.0
CREATION_DATE  = 
ORIGINATOR     = 

OBJECT_NAME    = HELIOS 1B
OBJECT_ID      = 1999-064A
CENTER_NAME    = EARTH
REF_FRAME      = TEME
TIME_SYSTEM    = UTC
MEAN_ELEMENT_THEORY = SGP/SGP4

EPOCH          = 2026-01-25T06:17:04.302240
MEAN_MOTION    = 14.87500664
ECCENTRICITY   = .000129
INCLINATION    = 98.1734
RA_OF_ASC_NODE = 286.2209
ARG_OF_PERICENTER = 132.6548
MEAN_ANOMALY   = 227.4776

EPHEMERIS_TYPE = 0
CLASSIFICATION_TYPE = U
NORAD_CAT_ID   = 25977
ELEMENT_SET_NO = 999
REV_AT_EPOCH   = 67880
BSTAR          = .38371E-3
MEAN_MOTION_DOT = .3421E-4
MEAN_MOTION_DDOT = 0

CCSDS_OMM_VERS = 2.0
CREATION_DATE  = 
ORIGINATOR     = 

OBJECT_NAME    = TERRA
OBJECT_ID      = 1999-068A
CENTER_NAME    = EARTH
REF_FRAME      = TEME
TIME_SYSTEM    = UTC
MEAN_ELEMENT_THEORY = SGP/SGP4

EPOCH          = 2026-01-25T10:38:15.917856
MEAN_MOTION    = 14.60962659
ECCENTRICITY   = .0001625
INCLINATION    = 97.9683
RA_OF_ASC_NODE = 80.5103
ARG_OF_PERICENTER = 353.0283
MEAN_ANOMALY   = 132.2277

EPHEMERIS_TYPE = 0
CLASSIFICATION_TYPE = U
NORAD_CAT_ID   = 25994
ELEMENT_SET_NO = 999
REV_AT_EPOCH   = 38876
BSTAR          = .17824E-3
MEAN_MOTION_DOT = .829E-5
MEAN_MOTION_DDOT = 0

CCSDS_OMM_VERS = 2.0
CREATION_DATE  = 
ORIGINATOR     = 

OBJECT_NAME    = SL-16 R/B
OBJECT_ID      = 2000-006B
CENTER_NAME    = EARTH
REF_FRAME      = TEME
TIME_SYSTEM    = UTC
MEAN_ELEMENT_THEORY = SGP/SGP4

EPOCH          = 2026-01-25T11:47:11.037408
MEAN_MOTION    = 14.15814327
ECCENTRICITY   = .0018633
INCLINATION    = 71.0007
RA_OF_ASC_NODE = 188.6655
ARG_OF_PERICENTER = 249.6679
MEAN_ANOMALY   = 110.2442

EPHEMERIS_TYPE = 0
CLASSIFICATION_TYPE = U
NORAD_CAT_ID   = 26070
ELEMENT_SET_NO = 999
REV_AT_EPOCH   = 34244
BSTAR          = .16268E-3
MEAN_MOTION_DOT = .272E-5
MEAN_MOTION_DDOT = 0

CCSDS_OMM_VERS = 2.0
CREATION_DATE  = 
ORIGINATOR     = 

OBJECT_NAME    = TITAN 4B R/B
OBJECT_ID      = 2000-047B
CENTER_NAME    = EARTH
REF_FRAME      = TEME
TIME_SYSTEM    = UTC
MEAN_ELEMENT_THEORY = SGP/SGP4

EPOCH          = 2026-01-25T11:46:45.678144
MEAN_MOTION    = 15.09173454
ECCENTRICITY   = .0036821
INCLINATION    = 67.9891
RA_OF_ASC_NODE = 161.9471
ARG_OF_PERICENTER = 89.3841
MEAN_ANOMALY   = 271.1527

EPHEMERIS_TYPE = 0
CLASSIFICATION_TYPE = U
NORAD_CAT_ID   = 26474
ELEMENT_SET_NO = 999
REV_AT_EPOCH   = 38639
BSTAR          = .40559E-3
MEAN_MOTION_DOT = .6431E-4
MEAN_MOTION_DDOT = 0

CCSDS_OMM_VERS = 2.0
CREATION_DATE  = 
ORIGINATOR     = 

OBJECT_NAME    = ENVISAT
OBJECT_ID      = 2002-009A
CENTER_NAME    = EARTH
REF_FRAME      = TEME
TIME_SYSTEM    = UTC
MEAN_ELEMENT_THEORY = SGP/SGP4

EPOCH          = 2026-01-25T12:18:16.570656
MEAN_MOTION    = 14.39019036
ECCENTRICITY   = .0001228
INCLINATION    = 98.3659
RA_OF_ASC_NODE = 340.1579
ARG_OF_PERICENTER = 91.7854
MEAN_ANOMALY   = 22.5153

EPHEMERIS_TYPE = 0
CLASSIFICATION_TYPE = U
NORAD_CAT_ID   = 27386
ELEMENT_SET_NO = 999
REV_AT_EPOCH   = 25296
BSTAR          = .1006E-3
MEAN_MOTION_DOT = .268E-5
MEAN_MOTION_DDOT = 0

