SL-16 R/B               
1 25400U 98043G   26025.44062146  .00000166  00000+0  88565-4 0  9995
2 25400  98.8186 338.5171 0010548 135.2791 224.9241 14.26038316432824
SL-16 R/B               
1 25407U 98045B   26025.13377005  .00000162  00000+0  10577-3 0  9996
2 25407  71.0108 273.1720 0005123  93.0192 267.1518 14.16186592420935
ISS (ZARYA)             
1 25544U 98067A   26025.20681522  .00014276  00000+0  27414-3 0  9991
2 25544  51.6318 287.2985 0011053  28.4406 331.7183 15.48166742549593
CZ-4B R/B               
1 25732U 99025C   26025.13807657  .00000125  00000+0  80856-4 0  9994
2 25732  98.6708  70.4346 0038152 109.7861 317.1534 14.18255889381999
OKEAN-O                 
1 25860U 99039A   26025.12073912  .00001478  00000+0  20109-3 0  9995
2 25860  97.9534  85.4346 0001877  98.9251 261.2173 14.80256341427949
SL-16 R/B               
1 25861U 99039B   26025.14185832  .00001170  00000+0  15527-3 0  9990
2 25861  98.0060  84.2827 0015704  42.8461 317.3972 14.81663786430414
DELTA 2 R/B             
1 25876U 99041E   26025.39901735  .00004165  00000+0  70670-3 0  9991
2 25876  51.7625 114.1464 0502910 220.5150 135.7310 14.11629275356911
HELIOS 1B               
1 25977U 99064A   26025.26185535  .00003421  00000+0  38371-3 0  9992
2 25977  98.1734 286.2209 0001290 132.6548 227.4776 14.87500664678809
TERRA                   
1 25994U 99068A   26025.44323979  .00000829  00000+0  17824-3 0  9990
2 25994  97.9683  80.5103 0001625 353.0283 132.2277 14.60962659388762
SL-16 R/B               
1 26070U 00006B   26025.49109997  .00000272  00000+0  16268-3 0  9990
2 26070  71.0007 188.6655 0018633 249.6679 110.2442 14.15814327342442
TITAN 4B R/B            
1 26474U 00047B   26025.49080646  .00006431  00000+0  40559-3 0  9995
2 26474  67.9891 161.9471 0036821  89.3841 271.1527 15.09173454386390
ENVISAT                 
1 27386U 02009A   26025.51269179  .00000268  00000+0  10060-3 0  9997
2 27386  98.3659 340.1579 0001228  91.7854  22.5153 14.39019036252962
